STARLINK-37777          
1 69349U 26122W   26160.58337963 -.01171442  42183-3 -28537-2 0  9993
2 69349  97.2867 189.5807 0001033 104.9610 347.1831 15.96268998  2134
STARLINK-37779          
1 69350U 26122X   26160.58337963 -.01181223  43028-3 -28136-2 0  9997
2 69350  97.2866 189.5831 0001008 102.4299 355.0748 15.96685609  2137
STARLINK-37549          
1 69351U 26122Y   26160.58337963 -.01192317  43797-3 -28342-2 0  9996
2 69351  97.2866 189.5839 0001003 102.8435 356.2701 15.96725277  2135
STARLINK-37778          
1 69352U 26122Z   26160.58337963 -.01178198  42858-3 -27950-2 0  9999
2 69352  97.2866 189.5844 0001137  86.1392  13.9962 15.96759952  2139
STARLINK-37651          
1 69353U 26123A   26160.58337963 -.02138157  12737-2 -53908-2 0  9997
2 69353  53.1582 280.1334 0001193  50.5220 190.0597 15.95085490  1920
STARLINK-37652          
1 69354U 26123B   26160.58337963 -.02125082  12633-2 -52668-2 0  9998
2 69354  53.1579 280.1256 0001120  52.6448 191.6894 15.95402214  1929
STARLINK-37593          
1 69355U 26123C   26160.58337963 -.02140312  12824-2 -52671-2 0  9998
2 69355  53.1580 280.1198 0001150  47.1592 199.9509 15.95534955  1976
STARLINK-37597          
1 69356U 26123D   26160.58337963 -.02116358  12606-2 -50996-2 0  9998
2 69356  53.1579 280.1115 0001166  51.1259 199.9919 15.95920913  1974
STARLINK-37598          
1 69357U 26123E   26160.58337963 -.02088499  12347-2 -49242-2 0  9997
2 69357  53.1579 280.1032 0001137  44.0552 211.1027 15.96317336  1975
STARLINK-37602          
1 69358U 26123F   26160.58337963 -.02086876  12357-2 -48655-2 0  9993
2 69358  53.1578 280.0973 0001185  52.9445 205.1289 15.96522269  1976
STARLINK-37600          
1 69359U 26123G   26160.58337963 -.01924768  10672-2 -43612-2 0  9990
2 69359  53.1578 280.0863 0001062  63.0597 200.2791 15.97023760  1977
STARLINK-37599          
1 69360U 26123H   26160.58337963 -.01972442  11212-2 -43920-2 0  9997
2 69360  53.1578 280.0739 0000875  58.8570 210.4392 15.97345779  1927
STARLINK-37039          
1 69361U 26123J   26160.58337963 -.02003126  11555-2 -44366-2 0  9998
2 69361  53.1578 280.0679 0000968  56.1633 215.8947 15.97445580  1921
STARLINK-37040          
1 69362U 26123K   26160.58337963 -.01962441  11179-2 -42256-2 0  9990
2 69362  53.1577 280.0566 0000870  59.3063 218.0289 15.97949197  1927
STARLINK-37582          
1 69363U 26123L   26160.58337963 -.01947772  11060-2 -41239-2 0  9990
2 69363  53.1576 280.0496 0000837  56.3484 224.5867 15.98249240  1923
STARLINK-37309          
1 69364U 26123M   26160.58337963 -.01942998  11045-2 -40455-2 0  9998
2 69364  53.1575 280.0415 0001052  52.9139 231.8460 15.98547222  2060
STARLINK-37436          
1 69365U 26123N   26160.58337963 -.01926100  10938-2 -38781-2 0  9995
2 69365  53.1576 280.0266 0000913  57.2239 234.5434 15.99140409  2068
STARLINK-37581          
1 69366U 26123P   26160.58337963 -.01921900  10932-2 -38014-2 0  9992
2 69366  53.1577 280.0186 0000989  55.6922 240.0879 15.99453921  1919
STARLINK-37683          
1 69367U 26123Q   26160.58337963 -.01905250  10792-2 -37025-2 0  9998
2 69367  53.1576 280.0101 0000856  58.3988 241.2991 15.99762460  1921
STARLINK-37687          
1 69368U 26123R   26160.58337963 -.01879273  10575-2 -35527-2 0  9998
2 69368  53.1575 279.9988 0000918  57.8776 247.2797 16.00241185  1928
STARLINK-37631          
1 69369U 26123S   26160.58337963 -.01891032  10738-2 -35120-2 0  9996
2 69369  53.1573 279.9901 0000764  53.8424 255.7053 16.00551938  1982
STARLINK-37673          
1 69370U 26123T   26160.58337963 -.01862393  10488-2 -33704-2 0  9994
2 69370  53.1572 279.9803 0000864  64.5064 249.7877 16.00996751  1987
STARLINK-37645          
1 69371U 26123U   26160.58337963 -.01893043  10827-2 -34061-2 0  9995
2 69371  53.1572 279.9741 0000793  57.4213 259.6916 16.01100310  1980
STARLINK-37688          
1 69372U 26123V   26160.58337963 -.01827322  10371-2 -29252-2 0  9993
2 69372  53.1572 279.9392 0000651  53.0003 280.8177 16.03081510  1982
STARLINK-37685          
1 69373U 26123W   26160.58337963 -.01823858  10363-2 -28777-2 0  9996
2 69373  53.1571 279.9321 0000773  55.3118 281.9964 16.03323479  1980
STARLINK-37632          
1 69374U 26123X   26160.58337963 -.01800779  10162-2 -27804-2 0  9991
2 69374  53.1570 279.9239 0000657  57.2715 283.9452 16.03682960  1935
STARLINK-37454          
1 69375U 26123Y   26160.58337963 -.01773511  99225-3 -26740-2 0  9991
2 69375  53.1570 279.9137 0000676  52.5618 293.4348 16.04073762  2075
STARLINK-37485          
1 69376U 26123Z   26160.58337963 -.01797294  10200-2 -26754-2 0  9996
2 69376  53.1570 279.9063 0000741  50.8926 298.6026 16.04288776  2073
STARLINK-37439          
1 69377U 26123AA  26160.58337963 -.01864662  10996-2 -26967-2 0  9999
2 69377  53.1567 279.8951 0000646  86.3414 268.5616 16.04771654  1932
