OBJECT_NAME,OBJECT_ID,EPOCH,MEAN_MOTION,ECCENTRICITY,INCLINATION,RA_OF_ASC_NODE,ARG_OF_PERICENTER,MEAN_ANOMALY,EPHEMERIS_TYPE,CLASSIFICATION_TYPE,NORAD_CAT_ID,ELEMENT_SET_NO,REV_AT_EPOCH,BSTAR,MEAN_MOTION_DOT,MEAN_MOTION_DDOT
STARLINK-37777,2026-122W,2026-06-09T14:00:04.000032,15.96268998,.00010337,97.2867,189.5807,104.9610,347.1831,0,U,69349,999,213,-.28537028E-2,-.1171442E-1,.42183322E-3
STARLINK-37779,2026-122X,2026-06-09T14:00:04.000032,15.96685609,.00010087,97.2866,189.5831,102.4299,355.0748,0,U,69350,999,213,-.28136073E-2,-.1181223E-1,.43027864E-3
STARLINK-37549,2026-122Y,2026-06-09T14:00:04.000032,15.96725277,.00010038,97.2866,189.5839,102.8435,356.2701,0,U,69351,999,213,-.2834174E-2,-.1192317E-1,.43797171E-3
STARLINK-37778,2026-122Z,2026-06-09T14:00:04.000032,15.96759952,.00011373,97.2866,189.5844,86.1392,13.9962,0,U,69352,999,213,-.27949919E-2,-.1178198E-1,.42858494E-3
STARLINK-37651,2026-123A,2026-06-09T14:00:04.000032,15.95085490,.00011936,53.1582,280.1334,50.5220,190.0597,0,U,69353,999,192,-.53908465E-2,-.2138157E-1,.12737112E-2
STARLINK-37652,2026-123B,2026-06-09T14:00:04.000032,15.95402214,.00011205,53.1579,280.1256,52.6448,191.6894,0,U,69354,999,192,-.52668453E-2,-.2125082E-1,.12633259E-2
STARLINK-37593,2026-123C,2026-06-09T14:00:04.000032,15.95534955,.000115,53.1580,280.1198,47.1592,199.9509,0,U,69355,999,197,-.52671015E-2,-.2140312E-1,.1282379E-2
STARLINK-37597,2026-123D,2026-06-09T14:00:04.000032,15.95920913,.00011669,53.1579,280.1115,51.1259,199.9919,0,U,69356,999,197,-.5099604E-2,-.2116358E-1,.12606183E-2
STARLINK-37598,2026-123E,2026-06-09T14:00:04.000032,15.96317336,.00011376,53.1579,280.1032,44.0552,211.1027,0,U,69357,999,197,-.49241928E-2,-.2088499E-1,.12347454E-2
STARLINK-37602,2026-123F,2026-06-09T14:00:04.000032,15.96522269,.00011856,53.1578,280.0973,52.9445,205.1289,0,U,69358,999,197,-.4865467E-2,-.2086876E-1,.12357057E-2
STARLINK-37600,2026-123G,2026-06-09T14:00:04.000032,15.97023760,.00010628,53.1578,280.0863,63.0597,200.2791,0,U,69359,999,197,-.43612249E-2,-.1924768E-1,.10671881E-2
STARLINK-37599,2026-123H,2026-06-09T14:00:04.000032,15.97345779,.00008754,53.1578,280.0739,58.8570,210.4392,0,U,69360,999,192,-.43920198E-2,-.1972442E-1,.11211939E-2
STARLINK-37039,2026-123J,2026-06-09T14:00:04.000032,15.97445580,.00009686,53.1578,280.0679,56.1633,215.8947,0,U,69361,999,192,-.44366134E-2,-.2003126E-1,.11554805E-2
STARLINK-37040,2026-123K,2026-06-09T14:00:04.000032,15.97949197,.00008701,53.1577,280.0566,59.3063,218.0289,0,U,69362,999,192,-.42255518E-2,-.1962441E-1,.11179401E-2
STARLINK-37582,2026-123L,2026-06-09T14:00:04.000032,15.98249240,.00008371,53.1576,280.0496,56.3484,224.5867,0,U,69363,999,192,-.41239271E-2,-.1947772E-1,.11059658E-2
STARLINK-37309,2026-123M,2026-06-09T14:00:04.000032,15.98547222,.00010523,53.1575,280.0415,52.9139,231.8460,0,U,69364,999,206,-.40454835E-2,-.1942998E-1,.11045371E-2
STARLINK-37436,2026-123N,2026-06-09T14:00:04.000032,15.99140409,.00009139,53.1576,280.0266,57.2239,234.5434,0,U,69365,999,206,-.38781118E-2,-.19261E-1,.10938005E-2
STARLINK-37581,2026-123P,2026-06-09T14:00:04.000032,15.99453921,.0000989,53.1577,280.0186,55.6922,240.0879,0,U,69366,999,191,-.3801376E-2,-.19219E-1,.10931786E-2
STARLINK-37683,2026-123Q,2026-06-09T14:00:04.000032,15.99762460,.00008564,53.1576,280.0101,58.3988,241.2991,0,U,69367,999,192,-.37025051E-2,-.190525E-1,.10792259E-2
STARLINK-37687,2026-123R,2026-06-09T14:00:04.000032,16.00241185,.00009183,53.1575,279.9988,57.8776,247.2797,0,U,69368,999,192,-.35527487E-2,-.1879273E-1,.10575228E-2
STARLINK-37631,2026-123S,2026-06-09T14:00:04.000032,16.00551938,.00007644,53.1573,279.9901,53.8424,255.7053,0,U,69369,999,198,-.35120342E-2,-.1891032E-1,.10737707E-2
STARLINK-37673,2026-123T,2026-06-09T14:00:04.000032,16.00996751,.00008645,53.1572,279.9803,64.5064,249.7877,0,U,69370,999,198,-.33704138E-2,-.1862393E-1,.10488121E-2
STARLINK-37645,2026-123U,2026-06-09T14:00:04.000032,16.01100310,.00007938,53.1572,279.9741,57.4213,259.6916,0,U,69371,999,198,-.34061259E-2,-.1893043E-1,.10827329E-2
STARLINK-37688,2026-123V,2026-06-09T14:00:04.000032,16.03081510,.00006513,53.1572,279.9392,53.0003,280.8177,0,U,69372,999,198,-.29252015E-2,-.1827322E-1,.10370504E-2
STARLINK-37685,2026-123W,2026-06-09T14:00:04.000032,16.03323479,.00007737,53.1571,279.9321,55.3118,281.9964,0,U,69373,999,198,-.28777176E-2,-.1823858E-1,.10363472E-2
STARLINK-37632,2026-123X,2026-06-09T14:00:04.000032,16.03682960,.00006574,53.1570,279.9239,57.2715,283.9452,0,U,69374,999,193,-.27803529E-2,-.1800779E-1,.10162458E-2
STARLINK-37454,2026-123Y,2026-06-09T14:00:04.000032,16.04073762,.00006766,53.1570,279.9137,52.5618,293.4348,0,U,69375,999,207,-.26740462E-2,-.1773511E-1,.99225107E-3
STARLINK-37485,2026-123Z,2026-06-09T14:00:04.000032,16.04288776,.0000741,53.1570,279.9063,50.8926,298.6026,0,U,69376,999,207,-.26753678E-2,-.1797294E-1,.10199707E-2
STARLINK-37439,2026-123AA,2026-06-09T14:00:04.000032,16.04771654,.0000646,53.1567,279.8951,86.3414,268.5616,0,U,69377,999,193,-.26967087E-2,-.1864662E-1,.10995759E-2
